[{"OBJECT_NAME":"LINGQIAO VIDEO B","OBJECT_ID":"2015-057C","EPOCH":"2026-03-09T23:35:26.721888","MEAN_MOTION":14.77336016,"ECCENTRICITY":0.00156503,"INCLINATION":97.6585,"RA_OF_ASC_NODE":69.8903,"ARG_OF_PERICENTER":229.2428,"MEAN_ANOMALY":130.7425,"EPHEMERIS_TYPE":0,"CLASSIFICATION_TYPE":"U","NORAD_CAT_ID":40960,"ELEMENT_SET_NO":999,"REV_AT_EPOCH":56080,"BSTAR":0.00021138214,"MEAN_MOTION_DOT":1.456e-5,"MEAN_MOTION_DDOT":0},{"OBJECT_NAME":"GAOFEN-12 02","OBJECT_ID":"2021-026A","EPOCH":"2026-03-09T23:50:36.628800","MEAN_MOTION":14.8020404,"ECCENTRICITY":0.00046205,"INCLINATION":97.9918,"RA_OF_ASC_NODE":67.5938,"ARG_OF_PERICENTER":178.9576,"MEAN_ANOMALY":181.1647,"EPHEMERIS_TYPE":0,"CLASSIFICATION_TYPE":"U","NORAD_CAT_ID":48079,"ELEMENT_SET_NO":999,"REV_AT_EPOCH":26708,"BSTAR":9.800652e-5,"MEAN_MOTION_DOT":6.92e-6,"MEAN_MOTION_DDOT":0}]
